[{"OBJECT_NAME":"STARLINK-3561","OBJECT_ID":"2022-041Z","EPOCH":"2026-03-09T09:04:16.360032","MEAN_MOTION":15.08832024,"ECCENTRICITY":0.00013358,"INCLINATION":53.2165,"RA_OF_ASC_NODE":100.5193,"ARG_OF_PERICENTER":86.3847,"MEAN_ANOMALY":273.7298,"EPHEMERIS_TYPE":0,"CLASSIFICATION_TYPE":"U","NORAD_CAT_ID":52284,"ELEMENT_SET_NO":999,"REV_AT_EPOCH":21445,"BSTAR":6.352563e-5,"MEAN_MOTION_DOT":7.23e-6,"MEAN_MOTION_DDOT":0},{"OBJECT_NAME":"NEONSAT-1A","OBJECT_ID":"2026-019A","EPOCH":"2026-03-09T21:53:31.879392","MEAN_MOTION":15.0780294,"ECCENTRICITY":0.00137261,"INCLINATION":97.411,"RA_OF_ASC_NODE":192.4819,"ARG_OF_PERICENTER":167.4713,"MEAN_ANOMALY":192.686,"EPHEMERIS_TYPE":0,"CLASSIFICATION_TYPE":"U","NORAD_CAT_ID":67614,"ELEMENT_SET_NO":999,"REV_AT_EPOCH":585,"BSTAR":0.00027109929,"MEAN_MOTION_DOT":4.096e-5,"MEAN_MOTION_DDOT":0}]
